<?xml version="1.0" encoding="UTF-8"?>
<ndm xmlns:xsi="http://www.w3.org/2001/XMLSchema-instance" xsi:noNamespaceSchemaLocation="https://sanaregistry.org/r/ndmxml_unqualified/ndmxml-2.0.0-master-2.0.xsd">
<omm id="CCSDS_OMM_VERS" version="2.0">
<header><CREATION_DATE/><ORIGINATOR/></header><body><segment><metadata><OBJECT_NAME>ORBCOMM FM103</OBJECT_NAME><OBJECT_ID>2014-040F</OBJECT_ID><CENTER_NAME>EARTH</CENTER_NAME><REF_FRAME>TEME</REF_FRAME><TIME_SYSTEM>UTC</TIME_SYSTEM><MEAN_ELEMENT_THEORY>SGP4</MEAN_ELEMENT_THEORY></metadata><data><meanElements><EPOCH>2025-02-14T19:10:06.877344</EPOCH><MEAN_MOTION>14.57801995</MEAN_MOTION><ECCENTRICITY>.000138</ECCENTRICITY><INCLINATION>47.0037</INCLINATION><RA_OF_ASC_NODE>235.6659</RA_OF_ASC_NODE><ARG_OF_PERICENTER>92.5418</ARG_OF_PERICENTER><MEAN_ANOMALY>267.5625</MEAN_ANOMALY></meanElements><tleParameters><EPHEMERIS_TYPE>0</EPHEMERIS_TYPE><CLASSIFICATION_TYPE>U</CLASSIFICATION_TYPE><NORAD_CAT_ID>40091</NORAD_CAT_ID><ELEMENT_SET_NO>999</ELEMENT_SET_NO><REV_AT_EPOCH>56330</REV_AT_EPOCH><BSTAR>.29573E-3</BSTAR><MEAN_MOTION_DOT>.1197E-4</MEAN_MOTION_DOT><MEAN_MOTION_DDOT>0</MEAN_MOTION_DDOT></tleParameters></data></segment></body></omm>
<omm id="CCSDS_OMM_VERS" version="2.0">
<header><CREATION_DATE/><ORIGINATOR/></header><body><segment><metadata><OBJECT_NAME>ORBCOMM FM114</OBJECT_NAME><OBJECT_ID>2015-081A</OBJECT_ID><CENTER_NAME>EARTH</CENTER_NAME><REF_FRAME>TEME</REF_FRAME><TIME_SYSTEM>UTC</TIME_SYSTEM><MEAN_ELEMENT_THEORY>SGP4</MEAN_ELEMENT_THEORY></metadata><data><meanElements><EPOCH>2025-02-14T14:51:12.377664</EPOCH><MEAN_MOTION>14.57861280</MEAN_MOTION><ECCENTRICITY>.0002066</ECCENTRICITY><INCLINATION>47.0021</INCLINATION><RA_OF_ASC_NODE>145.6375</RA_OF_ASC_NODE><ARG_OF_PERICENTER>180.6137</ARG_OF_PERICENTER><MEAN_ANOMALY>179.4746</MEAN_ANOMALY></meanElements><tleParameters><EPHEMERIS_TYPE>0</EPHEMERIS_TYPE><CLASSIFICATION_TYPE>U</CLASSIFICATION_TYPE><NORAD_CAT_ID>41179</NORAD_CAT_ID><ELEMENT_SET_NO>999</ELEMENT_SET_NO><REV_AT_EPOCH>48658</REV_AT_EPOCH><BSTAR>.31564E-3</BSTAR><MEAN_MOTION_DOT>.129E-4</MEAN_MOTION_DOT><MEAN_MOTION_DDOT>0</MEAN_MOTION_DDOT></tleParameters></data></segment></body></omm>
<omm id="CCSDS_OMM_VERS" version="2.0">
<header><CREATION_DATE/><ORIGINATOR/></header><body><segment><metadata><OBJECT_NAME>ORBCOMM FM119</OBJECT_NAME><OBJECT_ID>2015-081B</OBJECT_ID><CENTER_NAME>EARTH</CENTER_NAME><REF_FRAME>TEME</REF_FRAME><TIME_SYSTEM>UTC</TIME_SYSTEM><MEAN_ELEMENT_THEORY>SGP4</MEAN_ELEMENT_THEORY></metadata><data><meanElements><EPOCH>2025-02-14T12:46:13.350144</EPOCH><MEAN_MOTION>14.57778703</MEAN_MOTION><ECCENTRICITY>.0001761</ECCENTRICITY><INCLINATION>47.0010</INCLINATION><RA_OF_ASC_NODE>55.3130</RA_OF_ASC_NODE><ARG_OF_PERICENTER>250.3829</ARG_OF_PERICENTER><MEAN_ANOMALY>109.6867</MEAN_ANOMALY></meanElements><tleParameters><EPHEMERIS_TYPE>0</EPHEMERIS_TYPE><CLASSIFICATION_TYPE>U</CLASSIFICATION_TYPE><NORAD_CAT_ID>41180</NORAD_CAT_ID><ELEMENT_SET_NO>999</ELEMENT_SET_NO><REV_AT_EPOCH>48782</REV_AT_EPOCH><BSTAR>.29143E-3</BSTAR><MEAN_MOTION_DOT>.1176E-4</MEAN_MOTION_DOT><MEAN_MOTION_DDOT>0</MEAN_MOTION_DDOT></tleParameters></data></segment></body></omm>
<omm id="CCSDS_OMM_VERS" version="2.0">
<header><CREATION_DATE/><ORIGINATOR/></header><body><segment><metadata><OBJECT_NAME>ORBCOMM FM105</OBJECT_NAME><OBJECT_ID>2015-081C</OBJECT_ID><CENTER_NAME>EARTH</CENTER_NAME><REF_FRAME>TEME</REF_FRAME><TIME_SYSTEM>UTC</TIME_SYSTEM><MEAN_ELEMENT_THEORY>SGP4</MEAN_ELEMENT_THEORY></metadata><data><meanElements><EPOCH>2025-02-14T10:24:13.877280</EPOCH><MEAN_MOTION>14.45028251</MEAN_MOTION><ECCENTRICITY>.0000921</ECCENTRICITY><INCLINATION>47.0022</INCLINATION><RA_OF_ASC_NODE>48.8646</RA_OF_ASC_NODE><ARG_OF_PERICENTER>158.9258</ARG_OF_PERICENTER><MEAN_ANOMALY>201.1660</MEAN_ANOMALY></meanElements><tleParameters><EPHEMERIS_TYPE>0</EPHEMERIS_TYPE><CLASSIFICATION_TYPE>U</CLASSIFICATION_TYPE><NORAD_CAT_ID>41181</NORAD_CAT_ID><ELEMENT_SET_NO>999</ELEMENT_SET_NO><REV_AT_EPOCH>48299</REV_AT_EPOCH><BSTAR>.22233E-3</BSTAR><MEAN_MOTION_DOT>.626E-5</MEAN_MOTION_DOT><MEAN_MOTION_DDOT>0</MEAN_MOTION_DDOT></tleParameters></data></segment></body></omm>
<omm id="CCSDS_OMM_VERS" version="2.0">
<header><CREATION_DATE/><ORIGINATOR/></header><body><segment><metadata><OBJECT_NAME>ORBCOMM FM110</OBJECT_NAME><OBJECT_ID>2015-081D</OBJECT_ID><CENTER_NAME>EARTH</CENTER_NAME><REF_FRAME>TEME</REF_FRAME><TIME_SYSTEM>UTC</TIME_SYSTEM><MEAN_ELEMENT_THEORY>SGP4</MEAN_ELEMENT_THEORY></metadata><data><meanElements><EPOCH>2025-02-14T12:37:12.597600</EPOCH><MEAN_MOTION>14.57834429</MEAN_MOTION><ECCENTRICITY>.0002922</ECCENTRICITY><INCLINATION>47.0009</INCLINATION><RA_OF_ASC_NODE>145.4443</RA_OF_ASC_NODE><ARG_OF_PERICENTER>283.9027</ARG_OF_PERICENTER><MEAN_ANOMALY>76.1533</MEAN_ANOMALY></meanElements><tleParameters><EPHEMERIS_TYPE>0</EPHEMERIS_TYPE><CLASSIFICATION_TYPE>U</CLASSIFICATION_TYPE><NORAD_CAT_ID>41182</NORAD_CAT_ID><ELEMENT_SET_NO>999</ELEMENT_SET_NO><REV_AT_EPOCH>48644</REV_AT_EPOCH><BSTAR>.4669E-3</BSTAR><MEAN_MOTION_DOT>.1989E-4</MEAN_MOTION_DOT><MEAN_MOTION_DDOT>0</MEAN_MOTION_DDOT></tleParameters></data></segment></body></omm>
<omm id="CCSDS_OMM_VERS" version="2.0">
<header><CREATION_DATE/><ORIGINATOR/></header><body><segment><metadata><OBJECT_NAME>ORBCOMM FM118</OBJECT_NAME><OBJECT_ID>2015-081E</OBJECT_ID><CENTER_NAME>EARTH</CENTER_NAME><REF_FRAME>TEME</REF_FRAME><TIME_SYSTEM>UTC</TIME_SYSTEM><MEAN_ELEMENT_THEORY>SGP4</MEAN_ELEMENT_THEORY></metadata><data><meanElements><EPOCH>2025-02-14T15:30:17.911296</EPOCH><MEAN_MOTION>14.57757362</MEAN_MOTION><ECCENTRICITY>.0003397</ECCENTRICITY><INCLINATION>47.0033</INCLINATION><RA_OF_ASC_NODE>145.3047</RA_OF_ASC_NODE><ARG_OF_PERICENTER>282.2869</ARG_OF_PERICENTER><MEAN_ANOMALY>77.7635</MEAN_ANOMALY></meanElements><tleParameters><EPHEMERIS_TYPE>0</EPHEMERIS_TYPE><CLASSIFICATION_TYPE>U</CLASSIFICATION_TYPE><NORAD_CAT_ID>41183</NORAD_CAT_ID><ELEMENT_SET_NO>999</ELEMENT_SET_NO><REV_AT_EPOCH>48664</REV_AT_EPOCH><BSTAR>.43744E-3</BSTAR><MEAN_MOTION_DOT>.1849E-4</MEAN_MOTION_DOT><MEAN_MOTION_DDOT>0</MEAN_MOTION_DDOT></tleParameters></data></segment></body></omm>
<omm id="CCSDS_OMM_VERS" version="2.0">
<header><CREATION_DATE/><ORIGINATOR/></header><body><segment><metadata><OBJECT_NAME>ORBCOMM FM112</OBJECT_NAME><OBJECT_ID>2015-081F</OBJECT_ID><CENTER_NAME>EARTH</CENTER_NAME><REF_FRAME>TEME</REF_FRAME><TIME_SYSTEM>UTC</TIME_SYSTEM><MEAN_ELEMENT_THEORY>SGP4</MEAN_ELEMENT_THEORY></metadata><data><meanElements><EPOCH>2025-02-14T08:55:07.982688</EPOCH><MEAN_MOTION>14.57783165</MEAN_MOTION><ECCENTRICITY>.000111</ECCENTRICITY><INCLINATION>46.9995</INCLINATION><RA_OF_ASC_NODE>55.2401</RA_OF_ASC_NODE><ARG_OF_PERICENTER>240.5962</ARG_OF_PERICENTER><MEAN_ANOMALY>119.4813</MEAN_ANOMALY></meanElements><tleParameters><EPHEMERIS_TYPE>0</EPHEMERIS_TYPE><CLASSIFICATION_TYPE>U</CLASSIFICATION_TYPE><NORAD_CAT_ID>41184</NORAD_CAT_ID><ELEMENT_SET_NO>999</ELEMENT_SET_NO><REV_AT_EPOCH>48774</REV_AT_EPOCH><BSTAR>.38018E-3</BSTAR><MEAN_MOTION_DOT>.1586E-4</MEAN_MOTION_DOT><MEAN_MOTION_DDOT>0</MEAN_MOTION_DDOT></tleParameters></data></segment></body></omm>
<omm id="CCSDS_OMM_VERS" version="2.0">
<header><CREATION_DATE/><ORIGINATOR/></header><body><segment><metadata><OBJECT_NAME>ORBCOMM FM113</OBJECT_NAME><OBJECT_ID>2015-081G</OBJECT_ID><CENTER_NAME>EARTH</CENTER_NAME><REF_FRAME>TEME</REF_FRAME><TIME_SYSTEM>UTC</TIME_SYSTEM><MEAN_ELEMENT_THEORY>SGP4</MEAN_ELEMENT_THEORY></metadata><data><meanElements><EPOCH>2025-02-14T10:00:20.269728</EPOCH><MEAN_MOTION>14.57776217</MEAN_MOTION><ECCENTRICITY>.0001407</ECCENTRICITY><INCLINATION>47.0013</INCLINATION><RA_OF_ASC_NODE>55.3317</RA_OF_ASC_NODE><ARG_OF_PERICENTER>246.3196</ARG_OF_PERICENTER><MEAN_ANOMALY>113.7542</MEAN_ANOMALY></meanElements><tleParameters><EPHEMERIS_TYPE>0</EPHEMERIS_TYPE><CLASSIFICATION_TYPE>U</CLASSIFICATION_TYPE><NORAD_CAT_ID>41185</NORAD_CAT_ID><ELEMENT_SET_NO>999</ELEMENT_SET_NO><REV_AT_EPOCH>48773</REV_AT_EPOCH><BSTAR>.3275E-3</BSTAR><MEAN_MOTION_DOT>.1343E-4</MEAN_MOTION_DOT><MEAN_MOTION_DDOT>0</MEAN_MOTION_DDOT></tleParameters></data></segment></body></omm>

</ndm>
