ORBCOMM FM103           
1 40091U 14040F   25045.79869071  .00001197  00000+0  29573-3 0  9992
2 40091  47.0037 235.6659 0001380  92.5418 267.5625 14.57801995563303
ORBCOMM FM114           
1 41179U 15081A   25045.61889326  .00001290  00000+0  31564-3 0  9999
2 41179  47.0021 145.6375 0002066 180.6137 179.4746 14.57861280486580
ORBCOMM FM119           
1 41180U 15081B   25045.53209896  .00001176  00000+0  29143-3 0  9993
2 41180  47.0010  55.3130 0001761 250.3829 109.6867 14.57778703487824
ORBCOMM FM105           
1 41181U 15081C   25045.43349395  .00000626  00000+0  22233-3 0  9994
2 41181  47.0022  48.8646 0000921 158.9258 201.1660 14.45028251482998
ORBCOMM FM110           
1 41182U 15081D   25045.52584025  .00001989  00000+0  46690-3 0  9992
2 41182  47.0009 145.4443 0002922 283.9027  76.1533 14.57834429486447
ORBCOMM FM118           
1 41183U 15081E   25045.64604064  .00001849  00000+0  43744-3 0  9994
2 41183  47.0033 145.3047 0003397 282.2869  77.7635 14.57757362486649
ORBCOMM FM112           
1 41184U 15081F   25045.37162017  .00001586  00000+0  38018-3 0  9998
2 41184  46.9995  55.2401 0001110 240.5962 119.4813 14.57783165487744
ORBCOMM FM113           
1 41185U 15081G   25045.41690127  .00001343  00000+0  32750-3 0  9990
2 41185  47.0013  55.3317 0001407 246.3196 113.7542 14.57776217487732
